NORAD_CAT_ID,OBJECT_NAME,OBJECT_TYPE,EPOCH,MEAN_MOTION,ECCENTRICITY,INCLINATION,RA_OF_ASC_NODE,ARG_OF_PERICENTER,MEAN_ANOMALY,BSTAR,MEAN_MOTION_DOT,MEAN_MOTION_DDOT,TLE_LINE0,TLE_LINE1,TLE_LINE2,SEMIMAJOR_AXIS,PERIOD,APOGEE,PERIGEE,DECAYED
56787.0,STARLINK-6326,PAYLOAD,2023-11-12 04:00:00,15.64199265,0.0003405,69.9997,309.728,266.1701,222.0169,-0.010831,-0.00939109,0.0,0 STARLINK-6326,1 56787U 23078W   23316.16667824 -.00939109  00000-0 -10831-1 0  9995,2 56787  69.9997 309.7280 0003405 266.1701 222.0169 15.64199265 26185,6753.68,92.06,377.844,373.245,0.0
56787.0,STARLINK-6326,PAYLOAD,2023-11-12 14:00:01,15.63391295,0.0003485,69.9991,308.5669,267.5569,45.5751,-0.011419,-0.00957151,0.0,0 STARLINK-6326,1 56787U 23078W   23316.58334491 -.00957151  00000-0 -11419-1 0  9992,2 56787  69.9991 308.5669 0003485 267.5569  45.5751 15.63391295  5999,6756.006,92.107,380.226,375.517,0.0
56787.0,STARLINK-6326,PAYLOAD,2023-11-12 22:00:00,15.62691778,0.0003512,69.9992,307.6393,262.9989,125.2189,-0.010535,-0.00867244,0.0,0 STARLINK-6326,1 56787U 23078W   23316.91667824 -.00867244  00000-0 -10535-1 0  9999,2 56787  69.9992 307.6393 0003512 262.9989 125.2189 15.62691778  6057,6758.022,92.149,382.261,377.514,0.0
56787.0,STARLINK-6326,PAYLOAD,2023-11-13 06:00:00,15.62063434,0.0003342,69.9994,306.7125,268.1299,194.3801,-0.011466,-0.00916201,0.0,0 STARLINK-6326,1 56787U 23078W   23317.25001157 -.00916201  00000-0 -11466-1 0  9990,2 56787  69.9994 306.7125 0003342 268.1299 194.3801 15.62063434 26350,6759.835,92.186,383.959,379.44,0.0
56787.0,STARLINK-6326,PAYLOAD,2023-11-13 14:00:01,15.61428869,0.0003201,69.9993,305.7866,266.6739,269.3422,-0.012204,-0.00948131,0.0,0 STARLINK-6326,1 56787U 23078W   23317.58334491 -.00948131  00000-0 -12204-1 0  9994,2 56787  69.9993 305.7866 0003201 266.6739 269.3422 15.61428869  5991,6761.666,92.223,385.695,381.366,0.0
56787.0,STARLINK-6326,PAYLOAD,2023-11-13 22:00:00,15.60740147,0.0003353,69.9995,304.862,258.8039,349.9465,-0.011452,-0.00873245,0.0,0 STARLINK-6326,1 56787U 23078W   23317.91667824 -.00873245  00000-0 -11452-1 0  9997,2 56787  69.9995 304.8620 0003353 258.8039 349.9465 15.60740147  6049,6763.655,92.264,387.788,383.252,0.0
56787.0,STARLINK-6326,PAYLOAD,2023-11-14 06:00:00,15.60100359,0.0003446,69.9994,303.9381,265.4942,55.2072,-0.01223,-0.0090672,0.0,0 STARLINK-6326,1 56787U 23078W   23318.25001157 -.00906720  00000-0 -12230-1 0  9996,2 56787  69.9994 303.9381 0003446 265.4942  55.2072 15.60100359 26512,6765.504,92.302,389.7,385.038,0.0
56787.0,STARLINK-6326,PAYLOAD,2023-11-14 14:00:01,15.59469889,0.000348,69.9992,303.0148,267.3609,124.4976,-0.013108,-0.00944816,0.0,0 STARLINK-6326,1 56787U 23078W   23318.58334491 -.00944816  00000-0 -13108-1 0  9995,2 56787  69.9992 303.0148 0003480 267.3609 124.4976 15.59469889  6009,6767.327,92.339,391.547,386.837,0.0
56787.0,STARLINK-6326,PAYLOAD,2023-11-14 22:00:00,15.58782023,0.0003367,69.9996,302.0926,261.1377,201.1081,-0.012332,-0.00872532,0.0,0 STARLINK-6326,1 56787U 23078W   23318.91667824 -.00872532  00000-0 -12332-1 0  9994,2 56787  69.9996 302.0926 0003367 261.1377 201.1081 15.58782023  6056,6769.318,92.38,393.462,388.904,0.0
56787.0,STARLINK-6326,PAYLOAD,2023-11-15 06:00:02,15.58136892,0.0003248,69.9998,301.1712,265.9517,265.9637,-0.01301,-0.00896006,0.0,0 STARLINK-6326,1 56787U 23078W   23319.25002315 -.00896006  00000-0 -13010-1 0  9996,2 56787  69.9998 301.1712 0003248 265.9517 265.9637 15.58136892 26668,6771.186,92.418,395.251,390.852,0.0
56787.0,STARLINK-6326,PAYLOAD,2023-11-15 14:00:01,15.57517996,0.0003344,69.9996,300.2508,265.8958,334.8266,-0.014286,-0.00955165,0.0,0 STARLINK-6326,1 56787U 23078W   23319.58335648 -.00955165  00000-0 -14286-1 0  9998,2 56787  69.9996 300.2508 0003344 265.8958 334.8266 15.57517996  5998,6772.98,92.455,397.11,392.58,0.0
56787.0,STARLINK-6326,PAYLOAD,2023-11-15 22:00:00,15.56827891,0.0003504,69.9999,299.3315,262.2232,46.4742,-0.013251,-0.00871177,0.0,0 STARLINK-6326,1 56787U 23078W   23319.91667824 -.00871177  00000-0 -13251-1 0  9990,2 56787  69.9999 299.3315 0003504 262.2232  46.4742 15.56827891 26770,6774.981,92.496,399.22,394.472,0.0
56787.0,STARLINK-6326,PAYLOAD,2023-11-16 14:00:01,15.55557381,0.0003292,69.9996,297.4953,269.6439,172.7756,-0.015268,-0.00949345,0.0,0 STARLINK-6326,1 56787U 23078W   23320.58334491 -.00949345  00000-0 -15268-1 0  9999,2 56787  69.9996 297.4953 0003292 269.6439 172.7756 15.55557381 26870,6778.67,92.571,402.766,398.303,0.0
56787.0,STARLINK-6326,PAYLOAD,2023-11-16 22:00:01,15.5488173,0.00033,70.0002,296.5786,263.2935,244.8784,-0.014546,-0.0088801,0.0,0 STARLINK-6326,1 56787U 23078W   23320.91668981 -.00888010  00000-0 -14546-1 0  9999,2 56787  70.0002 296.5786 0003300 263.2935 244.8784 15.54881730  6031,6780.633,92.612,404.736,400.261,0.0
56787.0,STARLINK-6326,PAYLOAD,2023-11-17 06:00:00,15.54218504,0.0003379,70.0002,295.6627,267.8384,305.1881,-0.014913,-0.00888478,0.0,0 STARLINK-6326,1 56787U 23078W   23321.25001157 -.00888478  00000-0 -14913-1 0  9999,2 56787  70.0002 295.6627 0003379 267.8384 305.1881 15.54218504 26987,6782.562,92.651,406.719,402.135,0.0
56787.0,STARLINK-6326,PAYLOAD,2023-11-17 14:00:01,15.53602785,0.000345,69.9997,294.7476,265.3743,11.7647,-0.016516,-0.0096884,0.0,0 STARLINK-6326,1 56787U 23078W   23321.58334491 -.00968840  00000-0 -16516-1 0  9998,2 56787  69.9997 294.7476 0003450 265.3743  11.7647 15.53602785  5941,6784.354,92.688,408.56,403.879,0.0
56787.0,STARLINK-6326,PAYLOAD,2023-11-17 22:00:01,15.52926019,0.0003574,70.0001,293.8335,261.5056,79.0385,-0.015655,-0.00889686,0.0,0 STARLINK-6326,1 56787U 23078W   23321.91668981 -.00889686  00000-0 -15655-1 0  9992,2 56787  70.0001 293.8335 0003574 261.5056  79.0385 15.52926019 27089,6786.325,92.728,410.616,405.765,0.0
56787.0,STARLINK-6326,PAYLOAD,2023-11-18 14:00:01,15.51458442,0.0003295,69.9998,292.0078,265.3186,199.5312,-0.006385,-0.0036163,0.0,0 STARLINK-6326,1 56787U 23078W   23322.58334491 -.00361630  00000-0 -63850-2 0  9997,2 56787  69.9998 292.0078 0003295 265.3186 199.5312 15.51458442  5940,6790.604,92.816,414.707,410.232,0.0
56787.0,STARLINK-6326,PAYLOAD,2023-11-18 22:00:00,15.51227578,0.0003124,70.0001,291.0967,260.5364,265.3376,0.00018946,0.0001098,0.0,0 STARLINK-6326,1 56787U 23078W   23322.91667824  .00010980  00000-0  18946-3 0  9997,2 56787  70.0001 291.0967 0003124 260.5364 265.3376 15.51227578 27232,6791.278,92.83,415.264,411.021,0.0
56787.0,STARLINK-6326,PAYLOAD,2023-11-19 14:00:01,15.51240822,0.0003117,69.9997,289.2739,267.9723,19.8015,-0.00079901,-0.00046848,0.0,0 STARLINK-6326,1 56787U 23078W   23323.58335648 -.00046848  00000-0 -79901-3 0  9999,2 56787  69.9997 289.2739 0003117 267.9723  19.8015 15.51240822 27342,6791.239,92.829,415.221,410.987,0.0
56787.0,STARLINK-6326,PAYLOAD,2023-11-19 22:00:00,15.51238708,0.0003205,70.0002,288.3627,263.7854,84.8257,-0.00013977,-8.37e-05,0.0,0 STARLINK-6326,1 56787U 23078W   23323.91667824 -.00008370  00000-0 -13977-3 0  9999,2 56787  70.0002 288.3627 0003205 263.7854  84.8257 15.51238708  6061,6791.245,92.829,415.287,410.934,0.0
56787.0,STARLINK-6326,PAYLOAD,2023-11-20 06:00:00,15.51217721,0.0003234,70.0001,287.4513,271.3041,138.2408,0.00011202,6.419e-05,0.0,0 STARLINK-6326,1 56787U 23078W   23324.25001157  .00006419  00000-0  11202-3 0  9997,2 56787  70.0001 287.4513 0003234 271.3041 138.2408 15.51217721 27448,6791.307,92.83,415.368,410.975,0.0
56787.0,STARLINK-6326,PAYLOAD,2023-11-20 14:00:01,15.51235114,0.0003253,69.9996,286.5398,269.5743,200.8792,-0.00061527,-0.00036155,0.0,0 STARLINK-6326,1 56787U 23078W   23324.58334491 -.00036155  00000-0 -61527-3 0  9990,2 56787  69.9996 286.5398 0003253 269.5743 200.8792 15.51235114  5947,6791.256,92.829,415.33,410.912,0.0
56787.0,STARLINK-6326,PAYLOAD,2023-11-20 22:00:00,15.51167691,0.000313,70.0,285.6286,260.17,271.1016,0.0013826,0.00081724,0.0,0 STARLINK-6326,1 56787U 23078W   23324.91667824  .00081724  00000-0  13826-2 0  9994,2 56787  70.0000 285.6286 0003130 260.1700 271.1016 15.51167691 27540,6791.453,92.833,415.443,411.192,0.0
56787.0,STARLINK-6326,PAYLOAD,2023-11-21 14:00:01,15.51286921,0.0003063,69.9997,283.8058,269.3603,23.7302,-0.00068085,-0.00040043,0.0,0 STARLINK-6326,1 56787U 23078W   23325.58334491 -.00040043  00000-0 -68085-3 0  9998,2 56787  69.9997 283.8058 0003063 269.3603  23.7302 15.51286921  6035,6791.105,92.826,415.05,410.889,0.0
56787.0,STARLINK-6326,PAYLOAD,2023-11-21 22:00:01,15.5129316,0.000309,70.0001,282.8946,267.929,86.1949,-0.0012494,-0.00073058,0.0,0 STARLINK-6326,1 56787U 23078W   23325.91668981 -.00073058  00000-0 -12494-2 0  9993,2 56787  70.0001 282.8946 0003090 267.9290  86.1949 15.51293160 27705,6791.086,92.826,415.05,410.853,0.0
56787.0,STARLINK-6326,PAYLOAD,2023-11-22 00:00:00,15.51308562,0.0003111,69.9999,282.6667,270.6955,188.6106,-0.0022752,-0.00132,0.0,0 STARLINK-6326,1 56787U 23078W   23326.00001157 -.00132000  00000-0 -22752-2 0  9991,2 56787  69.9999 282.6667 0003111 270.6955 188.6106 15.51308562  6005,6791.041,92.825,415.019,410.794,0.0
56787.0,STARLINK-6326,PAYLOAD,2023-11-22 01:07:15,15.51250927,0.000274,70.0001,282.5411,272.2583,87.8289,8.335e-05,4.738e-05,0.0,0 STARLINK-6326,1 56787U 23078W   23326.04670255  .00004738  00000-0  83350-4 0  9993,2 56787  70.0001 282.5411 0002740 272.2583  87.8289 15.51250927 27725,6791.21,92.828,414.935,411.214,0.0
56787.0,STARLINK-6326,PAYLOAD,2023-11-22 07:18:42,15.51226352,0.0003131,69.9974,281.8335,272.5291,87.5537,6.7512e-06,2.32e-06,0.0,0 STARLINK-6326,1 56787U 23078W   23326.30465919  .00000232  00000-0  67512-5 0  9999,2 56787  69.9974 281.8335 0003131 272.5291  87.5537 15.51226352 27764,6791.281,92.83,415.273,411.02,0.0
56787.0,STARLINK-6326,PAYLOAD,2023-11-23 00:20:09,15.51206358,0.0003091,69.9985,279.8968,276.0693,84.0141,8.5087e-05,4.833e-05,0.0,0 STARLINK-6326,1 56787U 23078W   23327.01399790  .00004833  00000-0  85087-4 0  9998,2 56787  69.9985 279.8968 0003091 276.0693  84.0141 15.51206358 27874,6791.34,92.831,415.304,411.106,0.0
